[{"OBJECT_NAME":"SENTINEL-2B","OBJECT_ID":"2017-013A","EPOCH":"2026-03-09T23:26:28.535424","MEAN_MOTION":14.30819717,"ECCENTRICITY":0.00011315,"INCLINATION":98.565,"RA_OF_ASC_NODE":145.1663,"ARG_OF_PERICENTER":94.2934,"MEAN_ANOMALY":265.8378,"EPHEMERIS_TYPE":0,"CLASSIFICATION_TYPE":"U","NORAD_CAT_ID":42063,"ELEMENT_SET_NO":999,"REV_AT_EPOCH":47045,"BSTAR":3.8552046e-5,"MEAN_MOTION_DOT":5.7e-7,"MEAN_MOTION_DDOT":0},{"OBJECT_NAME":"DELTA 2 R\/B","OBJECT_ID":"1999-008D","EPOCH":"2026-03-09T17:39:42.127200","MEAN_MOTION":14.49204498,"ECCENTRICITY":0.01361954,"INCLINATION":96.4862,"RA_OF_ASC_NODE":347.8898,"ARG_OF_PERICENTER":207.623,"MEAN_ANOMALY":217.0486,"EPHEMERIS_TYPE":0,"CLASSIFICATION_TYPE":"U","NORAD_CAT_ID":25637,"ELEMENT_SET_NO":999,"REV_AT_EPOCH":42635,"BSTAR":0.00012941754,"MEAN_MOTION_DOT":5.22e-6,"MEAN_MOTION_DDOT":0}]
